start=new Date('2022-07-09T00:00:00.000Z').valueOf();
sats=[{"FILE":"3510087","MEAN_ANOMALY":"306.4868","ELEMENT_SET_NO":"999","EPOCH":"2022-07-08T18:59:33.128160","MEAN_MOTION_DOT":"0.00000673","GP_ID":"207693344","RA_OF_ASC_NODE":"121.6496","CLASSIFICATION_TYPE":"U","EPHEMERIS_TYPE":"0","PERIOD":"95.593","REF_FRAME":"TEME","PERIAPSIS":"545.554","CENTER_NAME":"EARTH","DECAY_DATE":null,"INCLINATION":"53.0559","ECCENTRICITY":"0.00024330","MEAN_MOTION_DDOT":"0.0000000000000","TLE_LINE2":"2 44767  53.0559 121.6496 0002433  53.6346 306.4868 15.06391672146247","OBJECT_TYPE":"PAYLOAD","TIME_SYSTEM":"UTC","SEMIMAJOR_AXIS":"6925.374","REV_AT_EPOCH":"14624","RCS_SIZE":"LARGE","NORAD_CAT_ID":"44767","COUNTRY_CODE":"US","ARG_OF_PERICENTER":"53.6346","LAUNCH_DATE":"2019-11-11","APOAPSIS":"548.924","MEAN_MOTION":"15.06391672","OBJECT_NAME":"STARLINK-1062","BSTAR":"0.00006411800000","MEAN_ELEMENT_THEORY":"SGP4","SITE":"AFETR","TLE_LINE1":"1 44767U 19074BG  22189.79135565  .00000673  00000-0  64118-4 0  9992","OBJECT_ID":"2019-074BG"},{"OBJECT_ID":"2019-074BH","TLE_LINE1":"1 44768U 19074BH  22189.81439587  .00001991  00000-0  15253-3 0  9996","SITE":"AFETR","MEAN_ELEMENT_THEORY":"SGP4","BSTAR":"0.00015253000000","OBJECT_NAME":"STARLINK-1063","MEAN_MOTION":"15.06407004","APOAPSIS":"548.492","ARG_OF_PERICENTER":"63.4071","LAUNCH_DATE":"2019-11-11","COUNTRY_CODE":"US","NORAD_CAT_ID":"44768","RCS_SIZE":"LARGE","REV_AT_EPOCH":"14625","TIME_SYSTEM":"UTC","SEMIMAJOR_AXIS":"6925.327","OBJECT_TYPE":"PAYLOAD","TLE_LINE2":"2 44768  53.0534 121.5400 0001877  63.4071 296.7110 15.06407004146259","ECCENTRICITY":"0.00018770","MEAN_MOTION_DDOT":"0.0000000000000","INCLINATION":"53.0534","DECAY_DATE":null,"PERIAPSIS":"545.892","CENTER_NAME":"EARTH","REF_FRAME":"TEME","PERIOD":"95.592","EPHEMERIS_TYPE":"0","MEAN_MOTION_DOT":"0.00001991","GP_ID":"207691593","CLASSIFICATION_TYPE":"U","RA_OF_ASC_NODE":"121.5400","EPOCH":"2022-07-08T19:32:43.803168","ELEMENT_SET_NO":"999","MEAN_ANOMALY":"296.7110","FILE":"3510087"},{"OBJECT_ID":"2019-074BK","TLE_LINE1":"1 44770U 19074BK  22189.48226573  .00022694  00000-0  11596-2 0  9999","SITE":"AFETR","MEAN_ELEMENT_THEORY":"SGP4","BSTAR":"0.00115960000000","OBJECT_NAME":"STARLINK-1065","MEAN_MOTION":"15.16604168","APOAPSIS":"518.515","ARG_OF_PERICENTER":"81.8541","LAUNCH_DATE":"2019-11-11","COUNTRY_CODE":"US","NORAD_CAT_ID":"44770","RCS_SIZE":"LARGE","REV_AT_EPOCH":"14639","SEMIMAJOR_AXIS":"6894.250","TIME_SYSTEM":"UTC","OBJECT_TYPE":"PAYLOAD","TLE_LINE2":"2 44770  52.9986 106.1693 0003481  81.8541 278.2846 15.16604168146390","ECCENTRICITY":"0.00034810","MEAN_MOTION_DDOT":"0.0000000000000","INCLINATION":"52.9986","DECAY_DATE":null,"PERIAPSIS":"513.715","CENTER_NAME":"EARTH","REF_FRAME":"TEME","PERIOD":"94.949","EPHEMERIS_TYPE":"0","GP_ID":"207664414","MEAN_MOTION_DOT":"0.00022694","CLASSIFICATION_TYPE":"U","RA_OF_ASC_NODE":"106.1693","EPOCH":"2022-07-08T11:34:27.759072","ELEMENT_SET_NO":"999","MEAN_ANOMALY":"278.2846","FILE":"3509949"},{"ECCENTRICITY":"0.00025660","MEAN_MOTION_DDOT":"0.0000000000000","INCLINATION":"53.0552","OBJECT_TYPE":"PAYLOAD","TLE_LINE2":"2 44771  53.0552 123.6836 0002566  65.4735 294.6521 15.06402687146170","REF_FRAME":"TEME","DECAY_DATE":null,"PERIAPSIS":"545.428","CENTER_NAME":"EARTH","MEAN_MOTION_DOT":"0.00001572","GP_ID":"207663179","RA_OF_ASC_NODE":"123.6836","CLASSIFICATION_TYPE":"U","EPOCH":"2022-07-08T08:08:02.898816","PERIOD":"95.592","EPHEMERIS_TYPE":"0","FILE":"3509949","ELEMENT_SET_NO":"999","MEAN_ANOMALY":"294.6521","MEAN_ELEMENT_THEORY":"SGP4","BSTAR":"0.00012441000000","TLE_LINE1":"1 44771U 19074BL  22189.33892244  .00001572  00000-0  12441-3 0  9991","OBJECT_ID":"2019-074BL","SITE":"AFETR","MEAN_MOTION":"15.06402687","APOAPSIS":"548.982","OBJECT_NAME":"STARLINK-1067","ARG_OF_PERICENTER":"65.4735","LAUNCH_DATE":"2019-11-11","COUNTRY_CODE":"US","TIME_SYSTEM":"UTC","SEMIMAJOR_AXIS":"6925.340","NORAD_CAT_ID":"44771","RCS_SIZE":"LARGE","REV_AT_EPOCH":"14617"},{"EPOCH":"2022-07-08T11:05:51.383328","MEAN_MOTION_DOT":"0.00001218","GP_ID":"207663430","RA_OF_ASC_NODE":"103.1365","CLASSIFICATION_TYPE":"U","EPHEMERIS_TYPE":"0","PERIOD":"95.593","FILE":"3509949","ELEMENT_SET_NO":"999","MEAN_ANOMALY":"287.7863","INCLINATION":"53.0544","ECCENTRICITY":"0.00018920","MEAN_MOTION_DDOT":"0.0000000000000","TLE_LINE2":"2 44772  53.0544 103.1365 0001892  72.3333 287.7863 15.06393250146463","OBJECT_TYPE":"PAYLOAD","REF_FRAME":"TEME","PERIAPSIS":"545.924","CENTER_NAME":"EARTH","DECAY_DATE":null,"COUNTRY_CODE":"US","ARG_OF_PERICENTER":"72.3333","LAUNCH_DATE":"2019-11-11","SEMIMAJOR_AXIS":"6925.369","TIME_SYSTEM":"UTC","REV_AT_EPOCH":"14646","RCS_SIZE":"LARGE","NORAD_CAT_ID":"44772","BSTAR":"0.00010068000000","MEAN_ELEMENT_THEORY":"SGP4","SITE":"AFETR","OBJECT_ID":"2019-074BM","TLE_LINE1":"1 44772U 19074BM  22189.46240027  .00001218  00000-0  10068-3 0  9992","APOAPSIS":"548.545","MEAN_MOTION":"15.06393250","OBJECT_NAME":"STARLINK-1068"},{"REF_FRAME":"TEME","PERIAPSIS":"545.827","CENTER_NAME":"EARTH","DECAY_DATE":null,"INCLINATION":"53.0539","ECCENTRICITY":"0.00019410","MEAN_MOTION_DDOT":"0.0000000000000","TLE_LINE2":"2 44914  53.0539 242.7552 0001941  48.3105 311.8050 15.06413702137853","OBJECT_TYPE":"PAYLOAD","FILE":"3510087","ELEMENT_SET_NO":"999","MEAN_ANOMALY":"311.8050","EPOCH":"2022-07-08T13:05:16.660608","GP_ID":"207691857","MEAN_MOTION_DOT":"0.00002426","RA_OF_ASC_NODE":"242.7552","CLASSIFICATION_TYPE":"U","EPHEMERIS_TYPE":"0","PERIOD":"95.591","APOAPSIS":"548.516","MEAN_MOTION":"15.06413702","OBJECT_NAME":"STARLINK-1073","BSTAR":"0.00018163000000","MEAN_ELEMENT_THEORY":"SGP4","SITE":"AFETR","OBJECT_ID":"2020-001A","TLE_LINE1":"1 44914U 20001A   22189.54533172  .00002426  00000-0  18163-3 0  9993","SEMIMAJOR_AXIS":"6925.307","TIME_SYSTEM":"UTC","REV_AT_EPOCH":"13785","NORAD_CAT_ID":"44914","RCS_SIZE":"LARGE","COUNTRY_CODE":"US","ARG_OF_PERICENTER":"48.3105","LAUNCH_DATE":"2020-01-07"},{"EPOCH":"2022-07-08T15:23:17.044800","MEAN_MOTION_DOT":"0.00003667","GP_ID":"207693108","RA_OF_ASC_NODE":"242.3263","CLASSIFICATION_TYPE":"U","EPHEMERIS_TYPE":"0","PERIOD":"95.592","FILE":"3510087","MEAN_ANOMALY":"286.3138","ELEMENT_SET_NO":"999","INCLINATION":"53.0546","ECCENTRICITY":"0.00013920","MEAN_MOTION_DDOT":"0.0000000000000","TLE_LINE2":"2 44915  53.0546 242.3263 0001392  73.8004 286.3138 15.06406403137873","OBJECT_TYPE":"PAYLOAD","REF_FRAME":"TEME","PERIAPSIS":"546.230","CENTER_NAME":"EARTH","DECAY_DATE":null,"COUNTRY_CODE":"US","ARG_OF_PERICENTER":"73.8004","LAUNCH_DATE":"2020-01-07","SEMIMAJOR_AXIS":"6925.329","TIME_SYSTEM":"UTC","REV_AT_EPOCH":"13787","RCS_SIZE":"LARGE","NORAD_CAT_ID":"44915","BSTAR":"0.00026492000000","MEAN_ELEMENT_THEORY":"SGP4","SITE":"AFETR","TLE_LINE1":"1 44915U 20001B   22189.64116950  .00003667  00000-0  26492-3 0  9998","OBJECT_ID":"2020-001B","APOAPSIS":"548.158","MEAN_MOTION":"15.06406403","OBJECT_NAME":"STARLINK-1084"},{"REF_FRAME":"TEME","PERIAPSIS":"546.045","CENTER_NAME":"EARTH","DECAY_DATE":null,"INCLINATION":"53.0525","ECCENTRICITY":"0.00017140","MEAN_MOTION_DDOT":"0.0000000000000","TLE_LINE2":"2 44917  53.0525 241.4168 0001714  69.2396 290.8776 15.06394109137908","OBJECT_TYPE":"PAYLOAD","FILE":"3510087","MEAN_ANOMALY":"290.8776","ELEMENT_SET_NO":"999","EPOCH":"2022-07-08T20:15:13.421376","GP_ID":"207692858","MEAN_MOTION_DOT":"-0.00001493","CLASSIFICATION_TYPE":"U","RA_OF_ASC_NODE":"241.4168","EPHEMERIS_TYPE":"0","PERIOD":"95.593","APOAPSIS":"548.419","MEAN_MOTION":"15.06394109","OBJECT_NAME":"STARLINK-1098","BSTAR":"-0.00008139100000","MEAN_ELEMENT_THEORY":"SGP4","SITE":"AFETR","TLE_LINE1":"1 44917U 20001D   22189.84390534 -.00001493  00000-0 -81391-4 0  9991","OBJECT_ID":"2020-001D","SEMIMAJOR_AXIS":"6925.367","TIME_SYSTEM":"UTC","REV_AT_EPOCH":"13790","RCS_SIZE":"LARGE","NORAD_CAT_ID":"44917","COUNTRY_CODE":"US","ARG_OF_PERICENTER":"69.2396","LAUNCH_DATE":"2020-01-07"},{"NORAD_CAT_ID":"44918","RCS_SIZE":"LARGE","REV_AT_EPOCH":"13864","SEMIMAJOR_AXIS":"6925.298","TIME_SYSTEM":"UTC","LAUNCH_DATE":"2020-01-07","ARG_OF_PERICENTER":"85.0263","COUNTRY_CODE":"US","OBJECT_NAME":"STARLINK-1099","MEAN_MOTION":"15.06416657","APOAPSIS":"548.152","TLE_LINE1":"1 44918U 20001E   22189.85769518  .00004770  00000-0  33874-3 0  9996","OBJECT_ID":"2020-001E","SITE":"AFETR","MEAN_ELEMENT_THEORY":"SGP4","BSTAR":"0.00033874000000","MEAN_ANOMALY":"275.0889","ELEMENT_SET_NO":"999","FILE":"3510087","PERIOD":"95.591","EPHEMERIS_TYPE":"0","CLASSIFICATION_TYPE":"U","RA_OF_ASC_NODE":"241.3752","GP_ID":"207692107","MEAN_MOTION_DOT":"0.00004770","EPOCH":"2022-07-08T20:35:04.863552","DECAY_DATE":null,"CENTER_NAME":"EARTH","PERIAPSIS":"546.173","REF_FRAME":"TEME","OBJECT_TYPE":"PAYLOAD","TLE_LINE2":"2 44918  53.0519 241.3752 0001429  85.0263 275.0889 15.06416657138647","MEAN_MOTION_DDOT":"0.0000000000000","ECCENTRICITY":"0.00014290","INCLINATION":"53.0519"},{"PERIAPSIS":"546.018","CENTER_NAME":"EARTH","DECAY_DATE":null,"REF_FRAME":"TEME","TLE_LINE2":"2 44920  53.0540 242.8016 0001672  63.4382 296.6778 15.06412399137852","OBJECT_TYPE":"PAYLOAD","INCLINATION":"53.0540","ECCENTRICITY":"0.00016720","MEAN_MOTION_DDOT":"0.0000000000000","ELEMENT_SET_NO":"999","MEAN_ANOMALY":"296.6778","FILE":"3509949","EPHEMERIS_TYPE":"0","PERIOD":"95.591","EPOCH":"2022-07-08T12:54:40.080096","GP_ID":"207664927","MEAN_MOTION_DOT":"0.00000989","RA_OF_ASC_NODE":"242.8016","CLASSIFICATION_TYPE":"U","OBJECT_NAME":"STARLINK-1102","APOAPSIS":"548.333","MEAN_MOTION":"15.06412399","SITE":"AFETR","OBJECT_ID":"2020-001G","TLE_LINE1":"1 44920U 20001G   22189.53796389  .00000989  00000-0  85250-4 0  9994","BSTAR":"0.00008525000000","MEAN_ELEMENT_THEORY":"SGP4","REV_AT_EPOCH":"13785","RCS_SIZE":"LARGE","NORAD_CAT_ID":"44920","TIME_SYSTEM":"UTC","SEMIMAJOR_AXIS":"6925.311","COUNTRY_CODE":"US","ARG_OF_PERICENTER":"63.4382","LAUNCH_DATE":"2020-01-07"}];
